[
    {
        "Altitude(m)": 574085.3342936772,
        "Argument of Periapsis(deg)": -0.037671934638287344,
        "Eccentricity": 0.0,
        "Inclination(deg)": 97.0,
        "Latitude(deg)": -28.37698644219726,
        "Longitude(deg)": 162.2892286042358,
        "Mean Anomaly(deg)": 208.38573878197914,
        "RAAN(deg)": 90.00991175603086,
        "Satellite Name": "Starlink Shell 3 1782",
        "Satellite Number": 1782,
        "Semi-Major Axis(m)": 6938478.169268562,
        "Time(s)": 950
    },
    {
        "Altitude(m)": 574321.807807701,
        "Argument of Periapsis(deg)": -0.03806848131869037,
        "Eccentricity": 0.0,
        "Inclination(deg)": 97.0,
        "Latitude(deg)": -28.99751234283915,
        "Longitude(deg)": 162.14886397320953,
        "Mean Anomaly(deg)": 209.01121497968418,
        "RAAN(deg)": 90.01001609030487,
        "Satellite Name": "Starlink Shell 3 1782",
        "Satellite Number": 1782,
        "Semi-Major Axis(m)": 6938478.169268562,
        "Time(s)": 960
    },
    {
        "Altitude(m)": 574560.0853054973,
        "Argument of Periapsis(deg)": -0.0384650279990934,
        "Eccentricity": 0.0,
        "Inclination(deg)": 97.0,
        "Latitude(deg)": -29.617879946707863,
        "Longitude(deg)": 162.00732121419358,
        "Mean Anomaly(deg)": 209.63669117738914,
        "RAAN(deg)": 90.01012042457886,
        "Satellite Name": "Starlink Shell 3 1782",
        "Satellite Number": 1782,
        "Semi-Major Axis(m)": 6938478.169268562,
        "Time(s)": 970
    },
    {
        "Altitude(m)": 574800.0779224595,
        "Argument of Periapsis(deg)": -0.03886157467949641,
        "Eccentricity": 0.0,
        "Inclination(deg)": 97.0,
        "Latitude(deg)": -30.238085638326762,
        "Longitude(deg)": 161.8645553847861,
        "Mean Anomaly(deg)": 210.26216737509426,
        "RAAN(deg)": 90.01022475885287,
        "Satellite Name": "Starlink Shell 3 1782",
        "Satellite Number": 1782,
        "Semi-Major Axis(m)": 6938478.169268562,
        "Time(s)": 980
    },
    {
        "Altitude(m)": 575041.6958503772,
        "Argument of Periapsis(deg)": -0.03925812135989944,
        "Eccentricity": 0.0,
        "Inclination(deg)": 97.0,
        "Latitude(deg)": -30.858125737352793,
        "Longitude(deg)": 161.7205203860866,
        "Mean Anomaly(deg)": 210.88764357279933,
        "RAAN(deg)": 90.0103290931269,
        "Satellite Name": "Starlink Shell 3 1782",
        "Satellite Number": 1782,
        "Semi-Major Axis(m)": 6938478.169268562,
        "Time(s)": 990
    }
]